#dP2023 11 23  0  0  0.00000000      96 __u+U IGS20 EXT  IAC
## 2289 345600.00000000   900.00000000 60271 0.0000000000000
+  118   C06C07C08C09C10C11C12C13C14C16C19C20C21C22C23C24C25
+        C26C27C28C29C30C32C33C34C35C36C37C38C39C40C41C42C43
+        C44C45C46E02E03E04E05E07E08E09E10E11E12E13E15E19E21
+        E24E25E26E27E30E31E33E34E36G01G02G03G04G05G06G07G08
+        G09G10G11G12G13G14G15G16G17G18G19G20G21G22G23G24G25
+        G26G27G28G29G30G31G32J02J03J04R01R02R03R04R05R07R08
+        R09R11R12R13R14R15R16R17R18R19R20R21R22R24R25R26  0
++         9 10 12  9 10 10  7 10  9  9  8  9  8  8 10 10  8
++         8 10  9  8 10  8  9  8  9  8  9 12 10 10  8  8  9
++         8  8 10  8  8  8  8  8  8  7  8  7  8  9  8  8  9
++         8  8  8  8  8  9  8  8  8  0  7  8  7  8  7  8  7
++         7  7  8  8  7  8  8  8  8  8  8  7  7  8  7  8  9
++         8  9  8  9  8  8  7 11  8 10  8  8  8  9  8  8  8
++         9  8  8  9  8  9  7  8  8  9 10  8  9  9  8  8  0
%c M  cc GPS ccc cccc cccc cccc cccc ccccc ccccc ccccc ccccc
%c cc cc ccc ccc cccc cccc cccc cccc ccccc ccccc ccccc ccccc
%f  0.0000000  0.000000000  0.00000000000  0.000000000000000
%f  0.0000000  0.000000000  0.00000000000  0.000000000000000
%i    0    0    0    0      0      0      0      0         0
%i    0    0    0    0      0      0      0      0         0
/* IAC                                ULTRA-RAPID PREDICTION
/* S/V CLOCKS ARE ALIGNED TO GNSS TIME                      
/* G:C1WC2W R:C1PC2P E:C1XC5X C:C2IC6I J:C1CC2S             
/* PCV:IGS20_2287 OL/AL:FES2004  NONE     YN ORB:CoN CLK:CoN
*  2023 11 23  8 45  0.00000000
PC06 -17424.830166  27595.641813  26562.635168     36.449317
PC07  -8076.449773  40446.070280   9341.558282   -362.874705
PC08   -230.148879  23614.589567 -34893.677342    223.890970
PC09  -6973.486821  26721.381351  32127.864453   -125.493518
PC10  -1589.452732  42398.090597   2096.609401    -27.318823
PC11  -2540.051135 -16636.010005  22334.346134    270.380266
PC12  15330.467788 -20786.323881  10603.420791    849.324367
PC13   5488.486451  26893.393383 -31759.577234    386.470943
PC14  -7612.772330 -26375.386282  -4857.934032    839.784932
PC16 -20557.221908  27118.425488  24934.738002   -189.728545
PC19  12577.284540  20999.198826  13432.216027   -964.335184
PC20   2525.865086  27665.776563  -2760.426823     92.042849
PC21  10010.233359 -18077.508445  18755.271811   -969.949900
PC22  15959.082858   1903.592033  22805.615587   -214.186749
PC23 -26677.432816  -5506.741967   6084.083336   -816.170984
PC24  -1719.765091 -17451.814687 -21731.821732    623.902865
PC25 -20905.552218 -15338.439544 -10360.363262    262.015172
PC26  16747.497020  -9477.961036 -20216.442394   -210.195323
PC27 -20711.108651  18553.742176  -2324.993313    232.121655
PC28 -23585.236481   6987.035369  13192.479051    175.286272
PC29  12243.914720  10527.822508 -22759.163394    205.110560
PC30  -6382.018971  21212.561261 -16963.121096     -8.915362
PC32  -9921.208103  18073.772582 -18799.350683   -536.832030
PC33 -12671.193153 -20993.003137 -13316.838337   -943.716628
PC34   4982.053176 -20861.614889  17856.022758    309.514428
PC35  23363.332304  -7920.780100 -13083.918728    496.604025
PC36  19875.421208  16132.465633  11111.987642   -122.457920
PC37 -17600.314369   8609.079986  19887.966519   -896.961665
PC38  -9166.129312  21090.065356 -35300.913756    119.511736
PC39 -23333.186603  27897.138843  21168.570924     -5.786444
PC40 -13416.220308  38164.278017  12387.227886    -45.085491
PC41 -16044.377324  -2722.218538 -22621.631211   -871.608292
PC42  -1507.713322 -27523.474199   4322.504889   -493.809755
PC43 -11509.213061 -11362.821510  22736.023845     49.408676
PC44  20107.445121 -19258.204363   2096.439791    301.348017
PC45  26591.194085   5156.515672  -6658.634755    -48.698723
PC46   2914.769637  17553.958825  21477.848439   -101.964351
PE02  -7721.777501 -25619.381948 -12683.902002     80.775562
PE03   2469.245870 -26847.402865 -12222.401058    -75.342855
PE04  12017.130598  13486.725480  23447.744511   -263.916466
PE05  15421.235799 -24542.298960   6009.733737   4693.626468
PE07 -19414.229862   7389.591249 -21090.329407    -89.294554
PE08 -11553.639217 -13974.979743 -23402.267773   -181.320628
PE09  19272.188735  -7302.826548  21238.022497   -237.733166
PE10  27626.710447   3442.007107 -10037.268003   -580.996060
PE11  29412.322511  -3344.240243    311.988583   3226.011738
PE12  21899.718568   9160.079622 -17685.182686   -788.854272
PE13 -29453.617379   2916.443131    424.320039    -19.611853
PE15 -21489.349310  -9356.857258  18090.575738    -70.943807
PE19  -4511.579976  27424.763483  10172.758369  -1158.022343
PE21  -8422.718435  15914.002354  23492.060421   -565.488186
PE24  20634.870870   3987.619405 -20847.823351   -447.087432
PE25   8716.093254 -15616.655915 -23583.728824     -3.013214
PE26 -19484.215371  13639.357582 -17616.209403    289.128130
PE27 -20467.700826  -3479.534264  21105.169007   -206.832834
PE30 -20133.926592 -20868.858992   5978.663892   -684.855547
PE31  20302.495556  20588.910602  -6305.116459    -10.485189
PE33    352.320573  16027.967977 -24874.626089      2.893730
PE34  -1112.782551 -15969.077032  24899.881854    -79.488422
PE36  20066.269431 -13302.760580  17230.160439   -147.922830
PG01   7011.598663  13847.496156 -21953.861753    163.278842
PG02    351.466416  14958.274632 -21428.685076   -525.220168
PG03  11060.421941  23220.895101  -6990.482527      4.832801
PG04   2252.941550  20948.771385  16098.627937    220.551629
PG05   -829.110953 -19979.564703  17256.835441   -151.449376
PG06  25094.877377  -6422.327503   6176.727138    498.371090
PG07  22668.021480   6931.415957  12929.080258      6.161040
PG08  -3471.591235  24672.639071  -8660.406577   -153.456289
PG09  11073.132537  11823.126696  20951.293984      5.403078
PG10 -18299.347651  -3755.350410 -18820.154968    -62.485165
PG11  17531.879851 -12006.486756  15923.799627   -471.935454
PG12  -8343.771202 -23991.609365  -8169.303065   -450.001001
PG13  13244.540057 -22861.575054  -1261.632712    598.278998
PG14  19453.948040   7176.837553 -16672.861682    251.167803
PG15    -72.897469 -24991.103491  -9148.812187     99.908818
PG16  -6385.345453  16004.765751  19762.161428   -417.107665
PG17  16995.379845  -3492.252875 -19712.203253    722.940684
PG18 -23551.642646  -5565.942432  11167.748070   -487.039116
PG19  18562.059080 -11349.692615 -15181.103446    402.770290
PG20   9770.959738 -12009.354945  21636.424971    400.212153
PG21  -2741.655343  15353.049857 -20848.926597    143.521244
PG22  16527.600171    165.414650 -20281.824659     78.778252
PG23 -19856.385174 -14742.126364  -9922.751643    103.678877
PG24  -2137.711571 -15859.078624 -21584.362923   -377.742179
PG25 -17391.158515 -20054.479167   2619.055758    478.594992
PG26 -13441.159301   8431.545253  21185.540303    214.657805
PG27 -12784.656214  22662.629797   3782.880656    -73.770859
PG28 -25523.609888   6265.611146   3823.964914    -52.633732
PG29  -9335.834074 -12976.912393  21148.330943   -610.149039
PG30  26534.910415   -363.264704   3113.279496   -465.250800
PG31 -21848.516409  10022.211635  11537.924496   -225.995060
PG32 -17322.983404   7836.212805 -18272.483733   -588.923229
PJ02 -25750.411525  23341.241790  29042.548460     -0.264837
PJ03 -34842.644731  20344.059947  -7471.114029     -9.239028
PJ04 -19720.559230  29748.730000 -17419.103331     72.838776
PR01   9775.770518  11742.010139  20423.805020     70.484881
PR02  10534.187585  -7653.782325  21987.617298    -22.325740
PR03   5570.496972 -22531.933072  10698.269152     89.558810
PR04  -2075.252577 -24666.487407  -6181.434434    212.265509
PR05  -8687.523781 -13622.269405 -19743.897208    122.685313
PR07  -5198.590329  22909.760117  -9832.524951     69.768652
PR08   2440.387543  24538.936073   6496.689646    -73.380995
PR09 -19325.228353  -1560.726594  16547.449136    154.775856
PR11  10349.086439  15641.898744  17304.713204   -215.276107
PR12  21921.413257  13023.066598   -251.694559     33.732882
PR13  20344.537748   3572.190404 -14979.631208    -41.601408
PR14   5530.763662  -9663.030482 -22940.893945     25.594649
PR15 -11411.443125 -15989.625440 -16254.377308     84.554342
PR16 -21931.343306 -12993.848204    -13.113093     20.890965
PR17  16343.671105 -15186.583316  12340.899650     37.384442
PR18   1597.582499 -12221.157677  22362.833441    113.361895
PR19 -12818.347069  -4464.764226  21605.811084   -255.652462
PR20 -23333.905558   8347.867905   5980.298103   -104.002395
PR21 -16069.738217  15069.583211 -12877.201696    -55.554024
PR22   -723.442308  12115.099976 -22402.498043     94.876755
PR24  23062.263205  -9494.424652  -5279.764466    -33.220919
PR25 -16947.113463  14626.753352 -12239.661260     -4.233138
PR26   2265.038352  24748.733031   5802.797541    -15.486141
EOF
